CCSDS_OMM_VERS = 2.0
CREATION_DATE  = 
ORIGINATOR     = 

OBJECT_NAME    = ALOS-2
OBJECT_ID      = 2014-029A
CENTER_NAME    = EARTH
REF_FRAME      = TEME
TIME_SYSTEM    = UTC
MEAN_ELEMENT_THEORY = SGP/SGP4

EPOCH          = 2026-03-17T07:02:33.766368
MEAN_MOTION    = 14.79535339
ECCENTRICITY   = .00014333
INCLINATION    = 97.9193
RA_OF_ASC_NODE = 174.7802
ARG_OF_PERICENTER = 93.8543
MEAN_ANOMALY   = 266.2833

EPHEMERIS_TYPE = 0
CLASSIFICATION_TYPE = U
NORAD_CAT_ID   = 39766
ELEMENT_SET_NO = 999
REV_AT_EPOCH   = 63799
BSTAR          = .23775667E-3
MEAN_MOTION_DOT = .1727E-4
MEAN_MOTION_DDOT = 0

CCSDS_OMM_VERS = 2.0
CREATION_DATE  = 
ORIGINATOR     = 

OBJECT_NAME    = YAOGAN-29
OBJECT_ID      = 2015-069A
CENTER_NAME    = EARTH
REF_FRAME      = TEME
TIME_SYSTEM    = UTC
MEAN_ELEMENT_THEORY = SGP/SGP4

EPOCH          = 2026-03-17T06:48:45.764928
MEAN_MOTION    = 14.83003556
ECCENTRICITY   = .00014269
INCLINATION    = 98.0136
RA_OF_ASC_NODE = 104.7336
ARG_OF_PERICENTER = 22.1368
MEAN_ANOMALY   = 337.9906

EPHEMERIS_TYPE = 0
CLASSIFICATION_TYPE = U
NORAD_CAT_ID   = 41038
ELEMENT_SET_NO = 999
REV_AT_EPOCH   = 55700
BSTAR          = .49701079E-4
MEAN_MOTION_DOT = .35E-5
MEAN_MOTION_DDOT = 0

CCSDS_OMM_VERS = 2.0
CREATION_DATE  = 
ORIGINATOR     = 

OBJECT_NAME    = ASTRO-H (HITOMI)
OBJECT_ID      = 2016-012A
CENTER_NAME    = EARTH
REF_FRAME      = TEME
TIME_SYSTEM    = UTC
MEAN_ELEMENT_THEORY = SGP/SGP4

EPOCH          = 2026-03-16T23:18:47.247552
MEAN_MOTION    = 15.10055043
ECCENTRICITY   = .00096598
INCLINATION    = 30.9999
RA_OF_ASC_NODE = 309.5569
ARG_OF_PERICENTER = 43.9666
MEAN_ANOMALY   = 316.1739

EPHEMERIS_TYPE = 0
CLASSIFICATION_TYPE = U
NORAD_CAT_ID   = 41337
ELEMENT_SET_NO = 999
REV_AT_EPOCH   = 55333
BSTAR          = .15720904E-3
MEAN_MOTION_DOT = .2718E-4
MEAN_MOTION_DDOT = 0

CCSDS_OMM_VERS = 2.0
CREATION_DATE  = 
ORIGINATOR     = 

OBJECT_NAME    = HXMT (HUIYAN)
OBJECT_ID      = 2017-034A
CENTER_NAME    = EARTH
REF_FRAME      = TEME
TIME_SYSTEM    = UTC
MEAN_ELEMENT_THEORY = SGP/SGP4

EPOCH          = 2026-03-17T05:10:03.121824
MEAN_MOTION    = 15.17573604
ECCENTRICITY   = .00331949
INCLINATION    = 43.0158
RA_OF_ASC_NODE = 334.8320
ARG_OF_PERICENTER = 281.6948
MEAN_ANOMALY   = 78.0177

EPHEMERIS_TYPE = 0
CLASSIFICATION_TYPE = U
NORAD_CAT_ID   = 42758
ELEMENT_SET_NO = 999
REV_AT_EPOCH   = 48368
BSTAR          = .23806238E-3
MEAN_MOTION_DOT = .4696E-4
MEAN_MOTION_DDOT = 0

CCSDS_OMM_VERS = 2.0
CREATION_DATE  = 
ORIGINATOR     = 

OBJECT_NAME    = SAOCOM 1A
OBJECT_ID      = 2018-076A
CENTER_NAME    = EARTH
REF_FRAME      = TEME
TIME_SYSTEM    = UTC
MEAN_ELEMENT_THEORY = SGP/SGP4

EPOCH          = 2026-03-17T07:43:14.244096
MEAN_MOTION    = 14.82147004
ECCENTRICITY   = .00014288
INCLINATION    = 97.8895
RA_OF_ASC_NODE = 264.3863
ARG_OF_PERICENTER = 86.1423
MEAN_ANOMALY   = 273.9954

EPHEMERIS_TYPE = 0
CLASSIFICATION_TYPE = U
NORAD_CAT_ID   = 43641
ELEMENT_SET_NO = 999
REV_AT_EPOCH   = 40249
BSTAR          = -.13715339E-4
MEAN_MOTION_DOT = -.161E-5
MEAN_MOTION_DDOT = 0

CCSDS_OMM_VERS = 2.0
CREATION_DATE  = 
ORIGINATOR     = 

OBJECT_NAME    = H-2A R/B
OBJECT_ID      = 2018-084L
CENTER_NAME    = EARTH
REF_FRAME      = TEME
TIME_SYSTEM    = UTC
MEAN_ELEMENT_THEORY = SGP/SGP4

EPOCH          = 2026-03-17T04:44:37.277088
MEAN_MOTION    = 15.41677086
ECCENTRICITY   = .00247789
INCLINATION    = 98.8724
RA_OF_ASC_NODE = 295.1923
ARG_OF_PERICENTER = 359.6295
MEAN_ANOMALY   = 0.4925

EPHEMERIS_TYPE = 0
CLASSIFICATION_TYPE = U
NORAD_CAT_ID   = 43682
ELEMENT_SET_NO = 999
REV_AT_EPOCH   = 40693
BSTAR          = .33568728E-3
MEAN_MOTION_DOT = .14205E-3
MEAN_MOTION_DDOT = 0

CCSDS_OMM_VERS = 2.0
CREATION_DATE  = 
ORIGINATOR     = 

OBJECT_NAME    = SAOCOM 1B
OBJECT_ID      = 2020-059A
CENTER_NAME    = EARTH
REF_FRAME      = TEME
TIME_SYSTEM    = UTC
MEAN_ELEMENT_THEORY = SGP/SGP4

EPOCH          = 2026-03-14T01:04:39.385920
MEAN_MOTION    = 14.82151938
ECCENTRICITY   = .00013837
INCLINATION    = 97.8899
RA_OF_ASC_NODE = 260.2532
ARG_OF_PERICENTER = 84.3427
MEAN_ANOMALY   = 275.7944

EPHEMERIS_TYPE = 0
CLASSIFICATION_TYPE = U
NORAD_CAT_ID   = 46265
ELEMENT_SET_NO = 999
REV_AT_EPOCH   = 29939
BSTAR          = .26755151E-4
MEAN_MOTION_DOT = .161E-5
MEAN_MOTION_DDOT = 0

CCSDS_OMM_VERS = 2.0
CREATION_DATE  = 
ORIGINATOR     = 

OBJECT_NAME    = CSS (TIANHE)
OBJECT_ID      = 2021-035A
CENTER_NAME    = EARTH
REF_FRAME      = TEME
TIME_SYSTEM    = UTC
MEAN_ELEMENT_THEORY = SGP/SGP4

EPOCH          = 2026-03-17T06:22:25.768128
MEAN_MOTION    = 15.61083168
ECCENTRICITY   = .00061505
INCLINATION    = 41.4671
RA_OF_ASC_NODE = 162.0513
ARG_OF_PERICENTER = 318.9181
MEAN_ANOMALY   = 41.1194

EPHEMERIS_TYPE = 0
CLASSIFICATION_TYPE = U
NORAD_CAT_ID   = 48274
ELEMENT_SET_NO = 999
REV_AT_EPOCH   = 27879
BSTAR          = .24645816E-3
MEAN_MOTION_DOT = .21102E-3
MEAN_MOTION_DDOT = 0

CCSDS_OMM_VERS = 2.0
CREATION_DATE  = 
ORIGINATOR     = 

OBJECT_NAME    = COSMOS 2550
OBJECT_ID      = 2021-056A
CENTER_NAME    = EARTH
REF_FRAME      = TEME
TIME_SYSTEM    = UTC
MEAN_ELEMENT_THEORY = SGP/SGP4

EPOCH          = 2026-03-17T03:31:02.671680
MEAN_MOTION    = 15.33878800
ECCENTRICITY   = .00082971
INCLINATION    = 67.1448
RA_OF_ASC_NODE = 18.3252
ARG_OF_PERICENTER = 268.8880
MEAN_ANOMALY   = 91.1323

EPHEMERIS_TYPE = 0
CLASSIFICATION_TYPE = U
NORAD_CAT_ID   = 48865
ELEMENT_SET_NO = 999
REV_AT_EPOCH   = 26460
BSTAR          = -.379957E-6
MEAN_MOTION_DOT = -.204E-5
MEAN_MOTION_DDOT = 0

CCSDS_OMM_VERS = 2.0
CREATION_DATE  = 
ORIGINATOR     = 

OBJECT_NAME    = CZ-2C R/B
OBJECT_ID      = 2022-058K
CENTER_NAME    = EARTH
REF_FRAME      = TEME
TIME_SYSTEM    = UTC
MEAN_ELEMENT_THEORY = SGP/SGP4

EPOCH          = 2026-03-16T21:42:38.464704
MEAN_MOTION    = 15.54771257
ECCENTRICITY   = .00419661
INCLINATION    = 50.1879
RA_OF_ASC_NODE = 281.1612
ARG_OF_PERICENTER = 231.5981
MEAN_ANOMALY   = 128.1218

EPHEMERIS_TYPE = 0
CLASSIFICATION_TYPE = U
NORAD_CAT_ID   = 52794
ELEMENT_SET_NO = 999
REV_AT_EPOCH   = 21125
BSTAR          = .44728262E-3
MEAN_MOTION_DOT = .31172E-3
MEAN_MOTION_DDOT = 0

CCSDS_OMM_VERS = 2.0
CREATION_DATE  = 
ORIGINATOR     = 

OBJECT_NAME    = CZ-2C R/B
OBJECT_ID      = 2022-132E
CENTER_NAME    = EARTH
REF_FRAME      = TEME
TIME_SYSTEM    = UTC
MEAN_ELEMENT_THEORY = SGP/SGP4

EPOCH          = 2026-03-16T23:51:40.875840
MEAN_MOTION    = 15.62542134
ECCENTRICITY   = .00199405
INCLINATION    = 97.2950
RA_OF_ASC_NODE = 79.5356
ARG_OF_PERICENTER = 68.1935
MEAN_ANOMALY   = 292.1443

EPHEMERIS_TYPE = 0
CLASSIFICATION_TYPE = U
NORAD_CAT_ID   = 54039
ELEMENT_SET_NO = 999
REV_AT_EPOCH   = 19151
BSTAR          = .42281241E-3
MEAN_MOTION_DOT = .3802E-3
MEAN_MOTION_DDOT = 0

CCSDS_OMM_VERS = 2.0
CREATION_DATE  = 
ORIGINATOR     = 

OBJECT_NAME    = GSLV R/B
OBJECT_ID      = 2022-138AN
CENTER_NAME    = EARTH
REF_FRAME      = TEME
TIME_SYSTEM    = UTC
MEAN_ELEMENT_THEORY = SGP/SGP4

EPOCH          = 2026-03-17T05:00:14.557248
MEAN_MOTION    = 14.96829228
ECCENTRICITY   = .0023762
INCLINATION    = 87.3883
RA_OF_ASC_NODE = 163.8462
ARG_OF_PERICENTER = 121.7083
MEAN_ANOMALY   = 238.6470

EPHEMERIS_TYPE = 0
CLASSIFICATION_TYPE = U
NORAD_CAT_ID   = 54149
ELEMENT_SET_NO = 999
REV_AT_EPOCH   = 18505
BSTAR          = .16396691E-3
MEAN_MOTION_DOT = .1917E-4
MEAN_MOTION_DDOT = 0

